{
  "type": "FeatureCollection",
  "features": [
    {
      "type": "Feature",
      "properties": {
        "norad_id": 40730,
        "name": "GPS BIIF-10 (PRN 08)",
        "group": "gps-ops",
        "lat": 29.23982095887685,
        "lon": -61.50781118026468,
        "alt_km": 19888.172967403818,
        "timestamp": "2025-12-15T19:00:45.614973+00:00",
        "meta_object_name": "GPS BIIF-10 (PRN 08)",
        "meta_object_id": "2015-033A",
        "meta_epoch": "2025-12-14T17:52:33.196224",
        "meta_mean_motion": 2.00565563,
        "meta_eccentricity": 0.01110844,
        "meta_inclination": 54.1289,
        "meta_ra_of_asc_node": 274.6903,
        "meta_arg_of_pericenter": 26.8533,
        "meta_mean_anomaly": 333.7312,
        "meta_ephemeris_type": 0,
        "meta_classification_type": "U",
        "meta_norad_cat_id": 40730,
        "meta_element_set_no": 999,
        "meta_rev_at_epoch": 7629,
        "meta_bstar": 0,
        "meta_mean_motion_dot": -6.9e-07,
        "meta_mean_motion_ddot": 0,
        "tle_line1": "1 40730U 15033A   25348.74482866 -.00000069  00000+0  00000+0 0  9997",
        "tle_line2": "2 40730  54.1289 274.6903 0111084  26.8533 333.7312  2.00565563 76296"
      },
      "geometry": {
        "type": "Point",
        "coordinates": [
          -61.50781118026468,
          29.23982095887685
        ]
      }
    },
    {
      "type": "Feature",
      "properties": {
        "norad_id": 41019,
        "name": "GPS BIIF-11 (PRN 10)",
        "group": "gps-ops",
        "lat": -5.473160493311763,
        "lon": 34.31267220719523,
        "alt_km": 20343.394184283618,
        "timestamp": "2025-12-15T19:00:45.614984+00:00",
        "meta_object_name": "GPS BIIF-11 (PRN 10)",
        "meta_object_id": "2015-062A",
        "meta_epoch": "2025-12-12T19:26:17.014560",
        "meta_mean_motion": 2.00567164,
        "meta_eccentricity": 0.01108438,
        "meta_inclination": 56.8322,
        "meta_ra_of_asc_node": 37.9995,
        "meta_arg_of_pericenter": 229.9503,
        "meta_mean_anomaly": 129.1214,
        "meta_ephemeris_type": 0,
        "meta_classification_type": "U",
        "meta_norad_cat_id": 41019,
        "meta_element_set_no": 999,
        "meta_rev_at_epoch": 7409,
        "meta_bstar": 0,
        "meta_mean_motion_dot": -9.6e-07,
        "meta_mean_motion_ddot": 0,
        "tle_line1": "1 41019U 15062A   25346.80991915 -.00000096  00000+0  00000+0 0  9995",
        "tle_line2": "2 41019  56.8322  37.9995 0110843 229.9503 129.1214  2.00567164 74093"
      },
      "geometry": {
        "type": "Point",
        "coordinates": [
          34.31267220719523,
          -5.473160493311763
        ]
      }
    },
    {
      "type": "Feature",
      "properties": {
        "norad_id": 41328,
        "name": "GPS BIIF-12 (PRN 32)",
        "group": "gps-ops",
        "lat": -48.969292030072765,
        "lon": 44.34497070110643,
        "alt_km": 20029.564016660435,
        "timestamp": "2025-12-15T19:00:45.614995+00:00",
        "meta_object_name": "GPS BIIF-12 (PRN 32)",
        "meta_object_id": "2016-007A",
        "meta_epoch": "2025-12-14T09:19:00.023808",
        "meta_mean_motion": 2.00560678,
        "meta_eccentricity": 0.00922324,
        "meta_inclination": 55.4071,
        "meta_ra_of_asc_node": 96.7915,
        "meta_arg_of_pericenter": 243.6085,
        "meta_mean_anomaly": 115.4276,
        "meta_ephemeris_type": 0,
        "meta_classification_type": "U",
        "meta_norad_cat_id": 41328,
        "meta_element_set_no": 999,
        "meta_rev_at_epoch": 7213,
        "meta_bstar": 0,
        "meta_mean_motion_dot": -2.9e-07,
        "meta_mean_motion_ddot": 0,
        "tle_line1": "1 41328U 16007A   25348.38819472 -.00000029  00000+0  00000+0 0  9996",
        "tle_line2": "2 41328  55.4071  96.7915 0092232 243.6085 115.4276  2.00560678 72138"
      },
      "geometry": {
        "type": "Point",
        "coordinates": [
          44.34497070110643,
          -48.969292030072765
        ]
      }
    },
    {
      "type": "Feature",
      "properties": {
        "norad_id": 43873,
        "name": "GPS BIII-1  (PRN 04)",
        "group": "gps-ops",
        "lat": -6.057912851517674,
        "lon": -76.41183102560612,
        "alt_km": 20085.627542040078,
        "timestamp": "2025-12-15T19:00:45.615006+00:00",
        "meta_object_name": "GPS BIII-1  (PRN 04)",
        "meta_object_id": "2018-109A",
        "meta_epoch": "2025-12-14T18:33:31.413600",
        "meta_mean_motion": 2.00553757,
        "meta_eccentricity": 0.00374,
        "meta_inclination": 55.5684,
        "meta_ra_of_asc_node": 99.4666,
        "meta_arg_of_pericenter": 195.0912,
        "meta_mean_anomaly": 336.5701,
        "meta_ephemeris_type": 0,
        "meta_classification_type": "U",
        "meta_norad_cat_id": 43873,
        "meta_element_set_no": 999,
        "meta_rev_at_epoch": 5137,
        "meta_bstar": 0,
        "meta_mean_motion_dot": -2.6e-07,
        "meta_mean_motion_ddot": 0,
        "tle_line1": "1 43873U 18109A   25348.77328025 -.00000026  00000+0  00000+0 0  9997",
        "tle_line2": "2 43873  55.5684  99.4666 0037400 195.0912 336.5701  2.00553757 51376"
      },
      "geometry": {
        "type": "Point",
        "coordinates": [
          -76.41183102560612,
          -6.057912851517674
        ]
      }
    },
    {
      "type": "Feature",
      "properties": {
        "norad_id": 44506,
        "name": "GPS BIII-2  (PRN 18)",
        "group": "gps-ops",
        "lat": 55.22284376360029,
        "lon": 57.58871541137063,
        "alt_km": 20238.84126017376,
        "timestamp": "2025-12-15T19:00:45.615018+00:00",
        "meta_object_name": "GPS BIII-2  (PRN 18)",
        "meta_object_id": "2019-056A",
        "meta_epoch": "2025-12-14T10:00:28.721376",
        "meta_mean_motion": 2.00566469,
        "meta_eccentricity": 0.00577186,
        "meta_inclination": 55.7208,
        "meta_ra_of_asc_node": 338.4855,
        "meta_arg_of_pericenter": 198.4901,
        "meta_mean_anomaly": 332.9722,
        "meta_ephemeris_type": 0,
        "meta_classification_type": "U",
        "meta_norad_cat_id": 44506,
        "meta_element_set_no": 999,
        "meta_rev_at_epoch": 4636,
        "meta_bstar": 0,
        "meta_mean_motion_dot": -8.9e-07,
        "meta_mean_motion_ddot": 0,
        "tle_line1": "1 44506U 19056A   25348.41699909 -.00000089  00000+0  00000+0 0  9995",
        "tle_line2": "2 44506  55.7208 338.4855 0057718 198.4901 332.9722  2.00566469 46369"
      },
      "geometry": {
        "type": "Point",
        "coordinates": [
          57.58871541137063,
          55.22284376360029
        ]
      }
    },
    {
      "type": "Feature",
      "properties": {
        "norad_id": 45854,
        "name": "GPS BIII-3  (PRN 23)",
        "group": "gps-ops",
        "lat": 23.337314684212622,
        "lon": 52.64185302070751,
        "alt_km": 20340.031096242616,
        "timestamp": "2025-12-15T19:00:45.615029+00:00",
        "meta_object_name": "GPS BIII-3  (PRN 23)",
        "meta_object_id": "2020-041A",
        "meta_epoch": "2025-12-14T06:05:38.632704",
        "meta_mean_motion": 2.00561996,
        "meta_eccentricity": 0.00605369,
        "meta_inclination": 56.5481,
        "meta_ra_of_asc_node": 36.1263,
        "meta_arg_of_pericenter": 203.4842,
        "meta_mean_anomaly": 154.2741,
        "meta_ephemeris_type": 0,
        "meta_classification_type": "U",
        "meta_norad_cat_id": 45854,
        "meta_element_set_no": 999,
        "meta_rev_at_epoch": 4032,
        "meta_bstar": 0,
        "meta_mean_motion_dot": -9.4e-07,
        "meta_mean_motion_ddot": 0,
        "tle_line1": "1 45854U 20041A   25348.25391936 -.00000094  00000+0  00000+0 0  9995",
        "tle_line2": "2 45854  56.5481  36.1263 0060536 203.4842 154.2741  2.00561996 40322"
      },
      "geometry": {
        "type": "Point",
        "coordinates": [
          52.64185302070751,
          23.337314684212622
        ]
      }
    },
    {
      "type": "Feature",
      "properties": {
        "norad_id": 46826,
        "name": "GPS BIII-4  (PRN 14)",
        "group": "gps-ops",
        "lat": -0.21991006942433658,
        "lon": -141.93311397530866,
        "alt_km": 20339.62117212642,
        "timestamp": "2025-12-15T19:00:45.615040+00:00",
        "meta_object_name": "GPS BIII-4  (PRN 14)",
        "meta_object_id": "2020-078A",
        "meta_epoch": "2025-12-14T12:30:57.028896",
        "meta_mean_motion": 2.00566857,
        "meta_eccentricity": 0.00647079,
        "meta_inclination": 54.0147,
        "meta_ra_of_asc_node": 218.2686,
        "meta_arg_of_pericenter": 203.3807,
        "meta_mean_anomaly": 318.6031,
        "meta_ephemeris_type": 0,
        "meta_classification_type": "U",
        "meta_norad_cat_id": 46826,
        "meta_element_set_no": 999,
        "meta_rev_at_epoch": 3780,
        "meta_bstar": 0,
        "meta_mean_motion_dot": 4.8e-07,
        "meta_mean_motion_ddot": 0,
        "tle_line1": "1 46826U 20078A   25348.52149339  .00000048  00000+0  00000+0 0  9991",
        "tle_line2": "2 46826  54.0147 218.2686 0064707 203.3807 318.6031  2.00566857 37808"
      },
      "geometry": {
        "type": "Point",
        "coordinates": [
          -141.93311397530866,
          -0.21991006942433658
        ]
      }
    }
  ]
}